{
    "links": {
        "self": "http://www.neowsapp.com/rest/v1/neo/3774034?api_key=iIulBulltgU6a56xZRHN4H3l9WmuAYTsLGpBGhQ2"
    },
    "id": "3774034",
    "neo_reference_id": "3774034",
    "name": "(2017 FX158)",
    "designation": "2017 FX158",
    "nasa_jpl_url": "http://ssd.jpl.nasa.gov/sbdb.cgi?sstr=3774034",
    "absolute_magnitude_h": 28.983,
    "estimated_diameter": {
        "kilometers": {
            "estimated_diameter_min": 0.0042457555,
            "estimated_diameter_max": 0.0094937978
        },
        "meters": {
            "estimated_diameter_min": 4.2457554584,
            "estimated_diameter_max": 9.4937978207
        },
        "miles": {
            "estimated_diameter_min": 0.0026381893,
            "estimated_diameter_max": 0.0058991706
        },
        "feet": {
            "estimated_diameter_min": 13.929644338,
            "estimated_diameter_max": 31.1476316421
        }
    },
    "is_potentially_hazardous_asteroid": false,
    "close_approach_data": [
        {
            "close_approach_date": "2017-03-20",
            "close_approach_date_full": "2017-Mar-20 02:16",
            "epoch_date_close_approach": 1489976160000,
            "relative_velocity": {
                "kilometers_per_second": "8.7240641695",
                "kilometers_per_hour": "31406.6310103689",
                "miles_per_hour": "19514.8591408595"
            },
            "miss_distance": {
                "astronomical": "0.0018179219",
                "lunar": "0.7071716191",
                "kilometers": "271957.244066353",
                "miles": "168986.3954595514"
            },
            "orbiting_body": "Earth"
        },
        {
            "close_approach_date": "2017-03-20",
            "close_approach_date_full": "2017-Mar-20 09:43",
            "epoch_date_close_approach": 1490002980000,
            "relative_velocity": {
                "kilometers_per_second": "9.3998555634",
                "kilometers_per_hour": "33839.4800280905",
                "miles_per_hour": "21026.5369096766"
            },
            "miss_distance": {
                "astronomical": "0.0038619831",
                "lunar": "1.5023114259",
                "kilometers": "577744.445735997",
                "miles": "358993.7518188786"
            },
            "orbiting_body": "Moon"
        }
    ],
    "orbital_data": {
        "orbit_id": "1",
        "orbit_determination_date": "2017-04-22 06:18:26",
        "first_observation_date": "2017-03-21",
        "last_observation_date": "2017-03-22",
        "data_arc_in_days": 1,
        "observations_used": 29,
        "orbit_uncertainty": "7",
        "minimum_orbit_intersection": ".000180637",
        "jupiter_tisserand_invariant": "3.955",
        "epoch_osculation": "2459000.5",
        "eccentricity": ".4686882137405323",
        "semi_major_axis": "1.777966367372476",
        "inclination": "5.167372366960834",
        "ascending_node_longitude": "178.8890934836886",
        "orbital_period": "865.9319003205243",
        "perihelion_distance": ".9446544865579272",
        "perihelion_argument": "327.1302717017657",
        "aphelion_distance": "2.611278248187025",
        "perihelion_time": "2458671.725878107166",
        "mean_anomaly": "136.6835935223197",
        "mean_motion": ".4157370803255385",
        "equinox": "J2000",
        "orbit_class": {
            "orbit_class_type": "APO",
            "orbit_class_description": "Near-Earth asteroid orbits which cross the Earth’s orbit similar to that of 1862 Apollo",
            "orbit_class_range": "a (semi-major axis) > 1.0 AU; q (perihelion) < 1.017 AU"
        }
    },
    "is_sentry_object": false
}